IRIDIUM 166             
1 43570U 18061B   23316.48970018  .00000492  00000+0  16848-3 0  9991
2 43570  86.3943  92.8147 0002108  98.1736 261.9698 14.34218562277564
IRIDIUM 158             
1 43571U 18061C   23315.89984461  .00000044  00000+0  86599-5 0  9998
2 43571  86.3942  93.0701 0002410  94.3641 265.7830 14.34215527277447
IRIDIUM 165             
1 43572U 18061D   23315.92521462  .00000393  00000+0  13336-3 0  9995
2 43572  86.3943  93.0883 0002418  93.6293 266.5179 14.34212050277479
IRIDIUM 155             
1 43573U 18061E   23315.88715764  .00000307  00000+0  10272-3 0  9992
2 43573  86.3939  93.0198 0001819  96.2967 263.8436 14.34212534277434
IRIDIUM 154             
1 43574U 18061F   23316.14718733  .00000386  00000+0  13058-3 0  9994
2 43574  86.3942  92.9983 0001986  84.4239 275.7183 14.34222840277527
IRIDIUM 163             
1 43575U 18061G   23315.91887284  .00000481  00000+0  16483-3 0  9998
2 43575  86.3942  93.0388 0002061  88.5920 271.5512 14.34214285277463
IRIDIUM 156             
1 43576U 18061H   23316.45164931  .00000076  00000+0  20131-4 0  9992
2 43576  86.3940  92.8218 0002154  98.4832 261.6608 14.34211597277522
IRIDIUM 164             
1 43577U 18061J   23315.87446246  .00000464  00000+0  15860-3 0  9993
2 43577  86.3942  93.0884 0002161  93.6598 266.4845 14.34218589277491
